[{"OBJECT_NAME":"GREENCUBE (IO-117)","OBJECT_ID":"2022-080E","EPOCH":"2026-04-26T12:18:44.275680","MEAN_MOTION":6.4258338,"ECCENTRICITY":0.00087821,"INCLINATION":70.1461,"RA_OF_ASC_NODE":316.2254,"ARG_OF_PERICENTER":301.5806,"MEAN_ANOMALY":58.3996,"EPHEMERIS_TYPE":0,"CLASSIFICATION_TYPE":"U","NORAD_CAT_ID":53109,"ELEMENT_SET_NO":999,"REV_AT_EPOCH":8874,"BSTAR":0,"MEAN_MOTION_DOT":-3.0e-8,"MEAN_MOTION_DDOT":0},{"OBJECT_NAME":"UMKA 1 (RS40S)","OBJECT_ID":"2023-091G","EPOCH":"2026-04-26T19:52:53.683104","MEAN_MOTION":15.20228674,"ECCENTRICITY":0.0011302,"INCLINATION":97.5095,"RA_OF_ASC_NODE":175.7357,"ARG_OF_PERICENTER":302.0503,"MEAN_ANOMALY":57.9634,"EPHEMERIS_TYPE":0,"CLASSIFICATION_TYPE":"U","NORAD_CAT_ID":57172,"ELEMENT_SET_NO":999,"REV_AT_EPOCH":15620,"BSTAR":0.00030917,"MEAN_MOTION_DOT":6.645e-5,"MEAN_MOTION_DDOT":0},{"OBJECT_NAME":"CUBESX-HSE 3 (RS42S)","OBJECT_ID":"2023-091N","EPOCH":"2026-04-26T20:26:30.290208","MEAN_MOTION":15.29915921,"ECCENTRICITY":0.000935,"INCLINATION":97.5129,"RA_OF_ASC_NODE":181.8343,"ARG_OF_PERICENTER":272.3562,"MEAN_ANOMALY":87.6608,"EPHEMERIS_TYPE":0,"CLASSIFICATION_TYPE":"U","NORAD_CAT_ID":57178,"ELEMENT_SET_NO":999,"REV_AT_EPOCH":15657,"BSTAR":0.0004784,"MEAN_MOTION_DOT":0.00013807,"MEAN_MOTION_DDOT":0},{"OBJECT_NAME":"MONITOR-3 (RS58S)","OBJECT_ID":"2023-091Q","EPOCH":"2026-04-26T19:59:34.325952","MEAN_MOTION":15.26806414,"ECCENTRICITY":0.0010191,"INCLINATION":97.5122,"RA_OF_ASC_NODE":179.9343,"ARG_OF_PERICENTER":280.7863,"MEAN_ANOMALY":79.2229,"EPHEMERIS_TYPE":0,"CLASSIFICATION_TYPE":"U","NORAD_CAT_ID":57180,"ELEMENT_SET_NO":999,"REV_AT_EPOCH":15645,"BSTAR":0.00041201,"MEAN_MOTION_DOT":0.000108,"MEAN_MOTION_DDOT":0},{"OBJECT_NAME":"MONITOR-4 (RS57S)","OBJECT_ID":"2023-091S","EPOCH":"2026-04-26T19:34:01.970112","MEAN_MOTION":15.26900814,"ECCENTRICITY":0.0010177,"INCLINATION":97.5116,"RA_OF_ASC_NODE":179.8845,"ARG_OF_PERICENTER":281.2345,"MEAN_ANOMALY":78.775,"EPHEMERIS_TYPE":0,"CLASSIFICATION_TYPE":"U","NORAD_CAT_ID":57182,"ELEMENT_SET_NO":999,"REV_AT_EPOCH":15645,"BSTAR":0.00041075,"MEAN_MOTION_DOT":0.00010797,"MEAN_MOTION_DDOT":0},{"OBJECT_NAME":"MONITOR-2 (RS39S)","OBJECT_ID":"2023-091U","EPOCH":"2026-04-26T20:28:22.237824","MEAN_MOTION":15.18428067,"ECCENTRICITY":0.0009697,"INCLINATION":97.5116,"RA_OF_ASC_NODE":175.4755,"ARG_OF_PERICENTER":294.1443,"MEAN_ANOMALY":65.8777,"EPHEMERIS_TYPE":0,"CLASSIFICATION_TYPE":"U","NORAD_CAT_ID":57184,"ELEMENT_SET_NO":999,"REV_AT_EPOCH":15616,"BSTAR":0.0002628,"MEAN_MOTION_DOT":5.347e-5,"MEAN_MOTION_DDOT":0},{"OBJECT_NAME":"SVYATOBOR 1 (RS60S)","OBJECT_ID":"2023-091X","EPOCH":"2026-04-26T20:27:12.260736","MEAN_MOTION":15.25731722,"ECCENTRICITY":0.0007914,"INCLINATION":97.5128,"RA_OF_ASC_NODE":180.4114,"ARG_OF_PERICENTER":271.3881,"MEAN_ANOMALY":88.645,"EPHEMERIS_TYPE":0,"CLASSIFICATION_TYPE":"U","NORAD_CAT_ID":57187,"ELEMENT_SET_NO":999,"REV_AT_EPOCH":15648,"BSTAR":0.00039226,"MEAN_MOTION_DOT":9.943e-5,"MEAN_MOTION_DDOT":0},{"OBJECT_NAME":"VIZARD-METEO (RS38S)","OBJECT_ID":"2023-091Z","EPOCH":"2026-04-26T20:24:07.102080","MEAN_MOTION":15.34391128,"ECCENTRICITY":0.0006205,"INCLINATION":97.5122,"RA_OF_ASC_NODE":185.3657,"ARG_OF_PERICENTER":244.6938,"MEAN_ANOMALY":115.3662,"EPHEMERIS_TYPE":0,"CLASSIFICATION_TYPE":"U","NORAD_CAT_ID":57189,"ELEMENT_SET_NO":999,"REV_AT_EPOCH":15681,"BSTAR":0.00053411,"MEAN_MOTION_DOT":0.00017737,"MEAN_MOTION_DDOT":0},{"OBJECT_NAME":"POLYTECH-UNIVERSE 3 (RS46S)","OBJECT_ID":"2023-091AB","EPOCH":"2026-04-26T19:42:18.660384","MEAN_MOTION":15.18625883,"ECCENTRICITY":0.0014216,"INCLINATION":97.5092,"RA_OF_ASC_NODE":174.949,"ARG_OF_PERICENTER":311.9544,"MEAN_ANOMALY":48.0478,"EPHEMERIS_TYPE":0,"CLASSIFICATION_TYPE":"U","NORAD_CAT_ID":57191,"ELEMENT_SET_NO":999,"REV_AT_EPOCH":15615,"BSTAR":0.00025919,"MEAN_MOTION_DOT":5.31e-5,"MEAN_MOTION_DDOT":0},{"OBJECT_NAME":"UTMN 2 (RS27S)","OBJECT_ID":"2023-091AP","EPOCH":"2026-04-26T19:59:00.157344","MEAN_MOTION":15.30783075,"ECCENTRICITY":0.0006731,"INCLINATION":97.5122,"RA_OF_ASC_NODE":183.3852,"ARG_OF_PERICENTER":255.7252,"MEAN_ANOMALY":104.3241,"EPHEMERIS_TYPE":0,"CLASSIFICATION_TYPE":"U","NORAD_CAT_ID":57203,"ELEMENT_SET_NO":999,"REV_AT_EPOCH":15668,"BSTAR":0.00046892,"MEAN_MOTION_DOT":0.00013891,"MEAN_MOTION_DDOT":0},{"OBJECT_NAME":"KUZGTU 1 (RS47S)","OBJECT_ID":"2023-091AV","EPOCH":"2026-04-26T19:11:13.686144","MEAN_MOTION":15.286789,"ECCENTRICITY":0.0009525,"INCLINATION":97.5102,"RA_OF_ASC_NODE":180.7949,"ARG_OF_PERICENTER":277.0063,"MEAN_ANOMALY":83.0093,"EPHEMERIS_TYPE":0,"CLASSIFICATION_TYPE":"U","NORAD_CAT_ID":57217,"ELEMENT_SET_NO":999,"REV_AT_EPOCH":15652,"BSTAR":0.00046291,"MEAN_MOTION_DOT":0.00012858,"MEAN_MOTION_DDOT":0},{"OBJECT_NAME":"SONATE-2","OBJECT_ID":"2024-043Q","EPOCH":"2026-04-26T15:40:59.863296","MEAN_MOTION":15.55040245,"ECCENTRICITY":0.0006703,"INCLINATION":97.5475,"RA_OF_ASC_NODE":264.0588,"ARG_OF_PERICENTER":38.2051,"MEAN_ANOMALY":321.9677,"EPHEMERIS_TYPE":0,"CLASSIFICATION_TYPE":"U","NORAD_CAT_ID":59112,"ELEMENT_SET_NO":999,"REV_AT_EPOCH":11987,"BSTAR":0.00063582,"MEAN_MOTION_DOT":0.00042787,"MEAN_MOTION_DDOT":0},{"OBJECT_NAME":"MESAT1","OBJECT_ID":"2024-125G","EPOCH":"2026-04-26T02:24:23.474880","MEAN_MOTION":15.57999123,"ECCENTRICITY":0.00117534,"INCLINATION":97.2382,"RA_OF_ASC_NODE":332.584,"ARG_OF_PERICENTER":57.663,"MEAN_ANOMALY":302.5763,"EPHEMERIS_TYPE":0,"CLASSIFICATION_TYPE":"U","NORAD_CAT_ID":60209,"ELEMENT_SET_NO":999,"REV_AT_EPOCH":10144,"BSTAR":0.00071549167,"MEAN_MOTION_DOT":0.00053921,"MEAN_MOTION_DDOT":0},{"OBJECT_NAME":"OOV-CUBE (TUBSAT-30)","OBJECT_ID":"2024-128F","EPOCH":"2026-04-26T17:59:01.502016","MEAN_MOTION":15.02511706,"ECCENTRICITY":0.0050469,"INCLINATION":61.996,"RA_OF_ASC_NODE":44.8977,"ARG_OF_PERICENTER":122.464,"MEAN_ANOMALY":238.1345,"EPHEMERIS_TYPE":0,"CLASSIFICATION_TYPE":"U","NORAD_CAT_ID":60240,"ELEMENT_SET_NO":999,"REV_AT_EPOCH":9838,"BSTAR":0.00023209,"MEAN_MOTION_DOT":2.968e-5,"MEAN_MOTION_DDOT":0},{"OBJECT_NAME":"COLIBRI-S (RS67S)","OBJECT_ID":"2024-199M","EPOCH":"2026-04-26T21:13:45.740352","MEAN_MOTION":15.45578649,"ECCENTRICITY":0.0010858,"INCLINATION":97.3077,"RA_OF_ASC_NODE":350.3346,"ARG_OF_PERICENTER":105.449,"MEAN_ANOMALY":254.7959,"EPHEMERIS_TYPE":0,"CLASSIFICATION_TYPE":"U","NORAD_CAT_ID":61746,"ELEMENT_SET_NO":999,"REV_AT_EPOCH":12948,"BSTAR":0.00046978,"MEAN_MOTION_DOT":0.00022583,"MEAN_MOTION_DDOT":0},{"OBJECT_NAME":"HORS 3 (RS81S)","OBJECT_ID":"2024-199U","EPOCH":"2026-04-26T19:20:49.249248","MEAN_MOTION":15.51533358,"ECCENTRICITY":0.0009271,"INCLINATION":97.3058,"RA_OF_ASC_NODE":351.7405,"ARG_OF_PERICENTER":108.4229,"MEAN_ANOMALY":251.8032,"EPHEMERIS_TYPE":0,"CLASSIFICATION_TYPE":"U","NORAD_CAT_ID":61753,"ELEMENT_SET_NO":999,"REV_AT_EPOCH":12958,"BSTAR":0.0006187,"MEAN_MOTION_DOT":0.00036687,"MEAN_MOTION_DDOT":0}]
