GREENCUBE (IO-117)      
1 53109U 22080E   26116.51301245 -.00000003  00000+0  00000+0 0  9999
2 53109  70.1461 316.2254 0008782 301.5806  58.3996  6.42583380 88746
UMKA 1 (RS40S)          
1 57172U 23091G   26116.82839911  .00006645  00000+0  30917-3 0  9997
2 57172  97.5095 175.7357 0011302 302.0503  57.9634 15.20228674156209
CUBESX-HSE 3 (RS42S)    
1 57178U 23091N   26116.85173947  .00013807  00000+0  47840-3 0  9997
2 57178  97.5129 181.8343 0009350 272.3562  87.6608 15.29915921156578
MONITOR-3 (RS58S)       
1 57180U 23091Q   26116.83303618  .00010800  00000+0  41201-3 0  9993
2 57180  97.5122 179.9343 0010191 280.7863  79.2229 15.26806414156450
MONITOR-4 (RS57S)       
1 57182U 23091S   26116.81530058  .00010797  00000+0  41075-3 0  9997
2 57182  97.5116 179.8845 0010177 281.2345  78.7750 15.26900814156458
MONITOR-2 (RS39S)       
1 57184U 23091U   26116.85303516  .00005347  00000+0  26280-3 0  9996
2 57184  97.5116 175.4755 0009697 294.1443  65.8777 15.18428067156169
SVYATOBOR 1 (RS60S)     
1 57187U 23091X   26116.85222524  .00009943  00000+0  39226-3 0  9998
2 57187  97.5128 180.4114 0007914 271.3881  88.6450 15.25731722156482
VIZARD-METEO (RS38S)    
1 57189U 23091Z   26116.85008220  .00017737  00000+0  53411-3 0  9997
2 57189  97.5122 185.3657 0006205 244.6938 115.3662 15.34391128156814
POLYTECH-UNIVERSE 3 (R*)
1 57191U 23091AB  26116.82104931  .00005310  00000+0  25919-3 0  9999
2 57191  97.5092 174.9490 0014216 311.9544  48.0478 15.18625883156158
UTMN 2 (RS27S)          
1 57203U 23091AP  26116.83264071  .00013891  00000+0  46892-3 0  9992
2 57203  97.5122 183.3852 0006731 255.7252 104.3241 15.30783075156680
KUZGTU 1 (RS47S)        
1 57217U 23091AV  26116.79946396  .00012858  00000+0  46291-3 0  9994
2 57217  97.5102 180.7949 0009525 277.0063  83.0093 15.28678900156520
SONATE-2                
1 59112U 24043Q   26116.65347064  .00042787  00000+0  63582-3 0  9996
2 59112  97.5475 264.0588 0006703  38.2051 321.9677 15.55040245119877
MESAT1                  
1 60209U 24125G   26116.10027170  .00053921  00000+0  71549-3 0  9993
2 60209  97.2382 332.5840 0011753  57.6630 302.5763 15.57999123101446
OOV-CUBE (TUBSAT-30)    
1 60240U 24128F   26116.74932294  .00002968  00000+0  23209-3 0  9998
2 60240  61.9960  44.8977 0050469 122.4640 238.1345 15.02511706 98389
COLIBRI-S (RS67S)       
1 61746U 24199M   26116.88455718  .00022583  00000+0  46978-3 0  9997
2 61746  97.3077 350.3346 0010858 105.4490 254.7959 15.45578649129487
HORS 3 (RS81S)          
1 61753U 24199U   26116.80612557  .00036687  00000+0  61870-3 0  9991
2 61753  97.3058 351.7405 0009271 108.4229 251.8032 15.51533358129581
